ONEWEB-0158             
1 48054U 21025N   26003.96560395  .00000266  00000+0  69302-3 0  9991
2 48054  87.8991 352.8460 0001836  73.9505 286.1826 13.13468180232072
ONEWEB-0157             
1 48055U 21025P   26003.99099214 -.00000247  00000+0 -71254-3 0  9992
2 48055  87.8990 352.8468 0001397  95.0966 265.0323 13.13469312232018
ONEWEB-0162             
1 48056U 21025Q   26003.96715963  .00000103  00000+0  24627-3 0  9997
2 48056  87.8991 352.8545 0001761  92.2396 267.8935 13.13468897231988
ONEWEB-0155             
1 48057U 21025R   26003.97406166 -.00000030  00000+0 -11600-3 0  9999
2 48057  87.8990 352.8573 0001506  84.1082 276.0219 13.13469981232127
ONEWEB-0149             
1 48058U 21025S   26003.99606854 -.00000225  00000+0 -64977-3 0  9999
2 48058  87.8987 352.8462 0001873  92.2256 267.9087 13.13469257231937
ONEWEB-0148             
1 48059U 21025T   26003.95883359  .00000277  00000+0  72432-3 0  9993
2 48059  87.8981 352.8725 0001911 103.8210 256.3132 13.13468083232059
ONEWEB-0160             
1 48060U 21025U   26003.97575998 -.00000131  00000+0 -39436-3 0  9992
2 48060  87.8982 352.8660 0002313  72.9086 287.2296 13.13468544232005
ONEWEB-0163             
1 48061U 21025V   26003.96053100  .00000203  00000+0  52047-3 0  9999
2 48061  87.8989 352.8573 0001413  92.3948 267.7343 13.13469249232121
